QIANFAN-65              
1 62795U 25016L   25246.22469843  .00000141  00000+0  19937-3 0  9997
2 62795  88.9779 113.4592 0012135 276.7920  83.1850 13.50966894 33674
QIANFAN-66              
1 62796U 25016M   25246.17940354  .00000130  00000+0  18289-3 0  9990
2 62796  88.9798 113.4142 0013194 271.6450  88.3190 13.50961990 33716
QIANFAN-67              
1 62797U 25016N   25246.25751063  .00000133  00000+0  18836-3 0  9998
2 62797  88.9789 113.4416 0013246 279.2107  80.7545 13.50970699 33695
QIANFAN-68              
1 62798U 25016P   25246.18755584  .00000149  00000+0  21287-3 0  9994
2 62798  88.9792 113.4933 0013861 277.3781  82.5794 13.50968256 33663
QIANFAN-69              
1 62799U 25016Q   25246.26577984  .00000128  00000+0  17942-3 0  9990
2 62799  88.9770 113.3734 0014047 278.2254  81.7304 13.50963666 33714
QIANFAN-70              
1 62800U 25016R   25246.20816965  .00000133  00000+0  18814-3 0  9997
2 62800  88.9792 113.4964 0013540 267.5529  92.4072 13.50967630 33660
QIANFAN-71              
1 62801U 25016S   25246.20413446  .00000142  00000+0  20154-3 0  9995
2 62801  88.9786 113.4826 0014009 282.4082  77.5501 13.50967316 33664
QIANFAN-72              
1 62802U 25016T   25246.19995887  .00000133  00000+0  18786-3 0  9996
2 62802  88.9776 113.5012 0017532 288.8942  71.0308 13.50962750 33651
